
CE-SAT-IE               
1 58987U 24032A   25018.12559126  .00001048  00000+0  19358-3 0  9996
2 58987  98.0727  77.3222 0001454 279.7170  80.3870 14.67480785 49270
TIRSAT                  
1 58989U 24032C   25018.09483763  .00003000  00000+0  50514-3 0  9996
2 58989  98.0695  78.1631 0005086   4.9668 355.1588 14.70284238 49339
INSAT-3DS               
1 58990U 24033A   25015.56091133 -.00000156  00000+0  00000+0 0  9995
2 58990   0.0874  92.9424 0001743 197.3462 108.9613  1.00270644 41871
ADRAS-J                 
1 58992U 24034A   25018.12056814  .00006991  00000+0  59177-3 0  9995
2 58992  98.2369   7.7660 0043168  61.5789 298.9771 14.97633659 49993
MERAH PUTIH 2           
1 58995U 24035A   25016.63047933 -.00000356  00000+0  00000+0 0  9992
2 58995   0.0163  52.1664 0000893 199.4746 204.5654  1.00270138  3418
AAC-AIS-SAT3            
1 58997U 23174DJ  25018.13212682  .00009198  00000+0  12505-2 0  9997
2 58997  97.6941  83.7542 0006780 199.7426 160.3524 14.78986193 64887
STARLINK-31468          
1 58998U 24036A   25017.93742822  .00001235  00000+0  53808-4 0  9994
2 58998  53.1597 208.9847 0000886  63.3400 296.7692 15.30194150 51687
STARLINK-31440          
1 58999U 24036B   25017.80890854  .00000294  00000+0  22048-4 0  9996
2 58999  53.1607 209.6000 0001207  98.9338 261.1799 15.30192349 50840
STARLINK-31529          
1 59000U 24036C   25017.76099917 -.00006938  00000+0 -22227-3 0  9997
2 59000  53.1581 207.8838 0001163 101.8902 258.2229 15.30209137 51598
STARLINK-31431          
1 59002U 24036E   25017.91857587 -.00003924  00000+0 -12060-3 0  9997
2 59002  53.1596 209.5691 0001305  95.5797 264.5353 15.30154559 51686
STARLINK-31435          
1 59004U 24036G   25017.94058798  .00001320  00000+0  56697-4 0  9990
2 59004  53.1608 208.9964 0001208  91.8752 268.2387 15.30200289 51680
STARLINK-31484          
1 59005U 24036H   25017.81313797 -.00002192  00000+0 -61918-4 0  9992
2 59005  53.1596 209.6213 0001326  94.6649 265.4503 15.30191468 51653
STARLINK-31450          
1 59006U 24036J   25017.82052341 -.00001275  00000+0 -30927-4 0  9996
2 59006  53.1607 209.6674 0001145  91.4098 268.7034 15.30188685 51652
STARLINK-31456          
1 59007U 24036K   25017.81629844 -.00000422  00000+0 -21291-5 0  9992
2 59007  53.1599 209.6402 0001203  91.0469 269.0669 15.30190706 51661
STARLINK-31460          
1 59008U 24036L   25017.91116652 -.00000115  00000+0  82485-5 0  9992
2 59008  53.1593 209.5259 0000956  84.6320 275.4790 15.30180558 51663
STARLINK-31488          
1 59009U 24036M   25017.94270060  .00000862  00000+0  41237-4 0  9997
2 59009  53.1592 209.0072 0001165  74.2041 285.9088 15.30194491 51677
STARLINK-31528          
1 59010U 24036N   25017.93226071  .00001717  00000+0  70092-4 0  9992
2 59010  53.1598 209.6504 0001262  73.8311 286.2828 15.30189945 51667
STARLINK-31491          
1 59011U 24036P   25017.93331642  .00001240  00000+0  54006-4 0  9992
2 59011  53.1602 209.6565 0001315  75.9499 284.1648 15.30197743 51662
STARLINK-31465          
1 59012U 24036Q   25017.92803931  .00000374  00000+0  24765-4 0  9993
2 59012  53.1607 209.6229 0001313  86.5304 273.5847 15.30195018 51662
STARLINK-31389          
1 59013U 24036R   25017.93120454  .00001285  00000+0  55496-4 0  9994
2 59013  53.1606 209.6431 0001231  83.8090 276.3051 15.30196814 51672
STARLINK-31454          
1 59014U 24036S   25017.79423960  .00001296  00000+0  55865-4 0  9999
2 59014  53.1618 210.2092 0001289  87.8493 272.2655 15.30196749 51640
STARLINK-31521          
1 59015U 24036T   25017.92381789  .00001089  00000+0  48897-4 0  9994
2 59015  53.1611 209.5938 0000730  98.0136 262.0947 15.30196170 51663
STARLINK-31526          
1 59016U 24036U   25017.72781577  .00000150  00000+0  17178-4 0  9998
2 59016  53.1603 184.8965 0001277  82.2995 277.8151 15.30192954 51998
STARLINK-31406          
1 59017U 24036V   25017.92170382  .00000395  00000+0  25467-4 0  9998
2 59017  53.1601 209.5823 0001239  79.9803 280.1338 15.30197595 51668
STARLINK-31527          
1 59018U 24036W   25017.84901213 -.00000192  00000+0  56556-5 0  9995
2 59018  53.1587 209.8466 0001317  93.8273 266.2878 15.30184867 51652
STARLINK-31436          
1 59019U 24036X   25017.93436960  .00000845  00000+0  40667-4 0  9997
2 59019  53.1596 209.6601 0001165  84.6248 275.4886 15.30198361 51669
TJS-11                  
1 59020U 24037A   25017.94105045 -.00000359  00000+0  00000+0 0  9991
2 59020   4.9652 322.3204 0005476 354.3223 260.0260  1.00269392  3410
STARLINK-30996          
1 59023U 24038A   25017.90055904  .00000342  00000+0  22903-4 0  9991
2 59023  43.0028 212.1534 0001090 265.8259  94.2468 15.25911881 51238
STARLINK-31006          
1 59024U 24038B   25017.73477040 -.00002172  00000+0 -44705-4 0  9991
2 59024  43.0035 171.9436 0002402 266.2721  93.7861 15.40717958 51650
STARLINK-31178          
1 59025U 24038C   25017.89828018 -.00009027  00000+0 -33515-3 0  9996
2 59025  43.0025 212.1352 0001428 261.0014  99.0676 15.25960834 51097
STARLINK-31227          
1 59026U 24038D   25017.96149590  .00003542  00000+0  14518-3 0  9992
2 59026  42.9995 211.7507 0001412 273.6238  86.4451 15.25912525 51218
STARLINK-30863          
1 59027U 24038E   25017.94113723  .00005360  00000+0  21454-3 0  9997
2 59027  42.9992 211.6001 0001268 265.0203  95.0503 15.25918477 51115
STARLINK-31206          
1 59028U 24038F   25017.45025322  .00002640  00000+0  70431-4 0  9999
2 59028  43.0010 159.9740 0001022 260.0979  99.9762 15.40703802 51780
STARLINK-31224          
1 59029U 24038G   25017.82605442 -.00000067  00000+0  72617-5 0  9999
2 59029  42.9997 212.4559 0001003 265.1799  94.8937 15.25909521 51193
STARLINK-31186          
1 59030U 24038H   25017.82378904  .00000442  00000+0  26741-4 0  9993
2 59030  43.0010 212.4408 0001105 270.2097  89.8628 15.25915349 51193
STARLINK-31211          
1 59031U 24038J   25017.95245130  .00000078  00000+0  12803-4 0  9991
2 59031  42.9994 211.6877 0000702 293.5532  66.5245 15.25908434 51114
STARLINK-30862          
1 59032U 24038K   25017.94036792  .00041727  00000+0  10585-2 0  9992
2 59032  42.9998 206.4377 0012374 302.5336  57.4324 15.38920903 51168
STARLINK-31210          
1 59033U 24038L   25017.85080444 -.00002690  00000+0 -92984-4 0  9999
2 59033  43.0044 211.7803 0000828 283.5441  76.5318 15.25925900 51266
STARLINK-31231          
1 59034U 24038M   25017.84626862  .00000767  00000+0  39152-4 0  9998
2 59034  43.0040 211.7393 0001192 263.7866  96.2849 15.25917857 51094
STARLINK-31207          
1 59035U 24038N   25017.84401051  .00001100  00000+0  51863-4 0  9995
2 59035  43.0019 211.7164 0000972 269.1767  90.8972 15.25911388 51261
STARLINK-31217          
1 59036U 24038P   25018.25001157  .00236838  00000+0  16156-2 0  9997
2 59036  42.9955 156.9456 0020859 342.9169 262.7936 15.73071322 51926
STARLINK-31208          
1 59037U 24038Q   25017.94325100  .00001027  00000+0  49080-4 0  9994
2 59037  43.0010 210.7350 0001264 267.6761  92.3945 15.25923013 51289
STARLINK-31235          
1 59038U 24038R   25017.84174324 -.00000143  00000+0  43693-5 0  9998
2 59038  43.0050 211.6957 0001056 283.8869  76.1865 15.25915381 51207
STARLINK-31220          
1 59039U 24038S   25017.93887185 -.00001686  00000+0 -54628-4 0  9998
2 59039  42.9988 211.5953 0001682 264.2718  95.7941 15.25909340 51213
STARLINK-31225          
1 59040U 24038T   25017.81884394  .00003237  00000+0  13355-3 0  9999
2 59040  43.0014 209.7732 0001315 274.9969  85.0732 15.25910234 51113
STARLINK-31240          
1 59041U 24038U   25017.86662643  .00000866  00000+0  42950-4 0  9995
2 59041  43.0029 211.9118 0002011 267.5601  92.5020 15.25913913 51208
STARLINK-31202          
1 59042U 24038V   25017.71748040  .00002473  00000+0  10434-3 0  9993
2 59042  43.0002 211.6465 0000999 278.1254  81.9483 15.25906077 51250
STARLINK-31234          
1 59043U 24038W   25017.92528245  .00005127  00000+0  20562-3 0  9992
2 59043  43.0020 211.4843 0001160 259.1453 100.9268 15.25925627 51109
STARLINK-31153          
1 59044U 24038X   25017.83722027  .00001308  00000+0  59835-4 0  9990
2 59044  43.0022 211.6631 0001106 257.1665 102.9063 15.25917810 51090
STARLINK-31241          
1 59045U 24038Y   25017.92304226  .00005266  00000+0  21102-3 0  9990
2 59045  43.0001 211.4685 0001010 267.7639  92.3096 15.25907698 51278
STARLINK-31205          
1 59046U 24038Z   25017.92077975  .00000498  00000+0  28899-4 0  9992
2 59046  43.0026 211.4492 0001415 274.5095  85.5595 15.25909592 51210
METEOR-M2 4             
1 59051U 24039A   25018.12322251  .00000104  00000+0  66034-4 0  9999
2 59051  98.6299 341.0677 0006317 214.7140 145.3626 14.22326011 46042
SITRO-AIS 29            
1 59052U 24039B   25018.12734005  .00096376  00000+0  15263-2 0  9996
2 59052  97.4118 347.9247 0012732 143.2666 216.9462 15.52996197 49638
SITRO-AIS 30            
1 59053U 24039C   25018.10428690  .00086826  00000+0  14164-2 0  9993
2 59053  97.4109 347.7963 0012741 144.9340 215.2754 15.52205700 49616
SITRO-AIS 31            
1 59054U 24039D   25018.12218107  .00092859  00000+0  14815-2 0  9992
2 59054  97.4130 347.9257 0012415 147.0698 213.1330 15.52808308 49640
SITRO-AIS 33            
1 59055U 24039E   25018.09697137  .00084050  00000+0  13363-2 0  9994
2 59055  97.4116 347.9724 0012320 144.3400 215.8678 15.52939830 49638
SITRO-AIS 35            
1 59056U 24039F   25018.15303423  .00092489  00000+0  14624-2 0  9990
2 59056  97.4131 348.0445 0012065 147.0362 213.1645 15.53064567 49644
SITRO-AIS 32            
1 59057U 24039G   25018.12953322  .00092017  00000+0  14841-2 0  9995
2 59057  97.4126 347.9336 0012418 146.0414 214.1636 15.52508569 49639
